[{"OBJECT_NAME":"HAWK-10B","OBJECT_ID":"2024-149CF","EPOCH":"2026-03-09T22:24:07.674624","MEAN_MOTION":14.96175068,"ECCENTRICITY":0.00063882,"INCLINATION":97.6865,"RA_OF_ASC_NODE":146.0046,"ARG_OF_PERICENTER":71.247,"MEAN_ANOMALY":288.9444,"EPHEMERIS_TYPE":0,"CLASSIFICATION_TYPE":"U","NORAD_CAT_ID":60545,"ELEMENT_SET_NO":999,"REV_AT_EPOCH":8514,"BSTAR":0.00020768682,"MEAN_MOTION_DOT":2.283e-5,"MEAN_MOTION_DDOT":0},{"OBJECT_NAME":"ICEYE-X56","OBJECT_ID":"2025-135AY","EPOCH":"2026-03-09T22:14:12.015744","MEAN_MOTION":14.94928364,"ECCENTRICITY":7.492e-5,"INCLINATION":97.761,"RA_OF_ASC_NODE":184.784,"ARG_OF_PERICENTER":334.2074,"MEAN_ANOMALY":25.9109,"EPHEMERIS_TYPE":0,"CLASSIFICATION_TYPE":"U","NORAD_CAT_ID":64574,"ELEMENT_SET_NO":999,"REV_AT_EPOCH":3909,"BSTAR":0.000532844,"MEAN_MOTION_DOT":5.76e-5,"MEAN_MOTION_DDOT":0}]
